IRIDIUM 171             
1 43929U 19002H   24166.87096276  .00000407  00000+0  13824-3 0  9994
2 43929  86.3966 299.8364 0002393  93.4138 266.7331 14.34216981283991
IRIDIUM 170             
1 43930U 19002J   24166.74516474  .00001283  00000+0  19961-3 0  9990
2 43930  86.6085 299.7089 0002347  87.9253 272.2233 14.72255841291493
IRIDIUM 167             
1 43931U 19002K   24166.86461790  .00000049  00000+0  10546-4 0  9994
2 43931  86.3957 299.6297 0002227  94.4954 265.6496 14.34217771283998
IRIDIUM 181             
1 56726U 23068S   24166.88889821  .00000532  00000+0  15126-3 0  9993
2 56726  86.8638 353.2421 0002296  94.6966 265.4498 14.43600498 56802
IRIDIUM 177             
1 56727U 23068T   24166.85917116  .00001632  00000+0  21126-3 0  9999
2 56727  86.1966 316.4659 0002624  90.6926 269.4596 14.80228807 58032
IRIDIUM 174             
1 56728U 23068U   24166.85373895  .00001645  00000+0  21302-3 0  9990
2 56728  86.1972 316.5720 0002063  95.2551 264.8905 14.80229570 58033
IRIDIUM 178             
1 56729U 23068V   24166.84838409  .00001974  00000+0  25625-3 0  9994
2 56729  86.5780 333.9297 0001886  90.2740 269.8697 14.80258938 58037
IRIDIUM 179             
1 56730U 23068W   24166.91047761  .00001934  00000+0  25130-3 0  9994
2 56730  86.6791 338.0088 0002049  91.4426 268.7030 14.80209921 58040
